province	province_id	district_id	division_id	ps_id	division	num	name	lat	lng	phone_mobile	phone_office	fax	id	gnd_id
Western	LK-1	LK-11	PS-1101	PS-110101	Colombo Central	1	Pettah	6.9364411	79.84979849999999	071-8591555	011-2323677	011-2421515	PS-110101	LK-1103115
Western	LK-1	LK-11	PS-1101	PS-110102	Colombo Central	2	Keselwatta	6.934854	79.85893519999999	071-8591556	011-2384091	011-2421944	PS-110102	
Western	LK-1	LK-11	PS-1101	PS-110103	Colombo Central	3	Dam Street	6.938267499999999	79.8563798	071-8591557	-	011-2432612	PS-110103	LK-1103115
Western	LK-1	LK-11	PS-1101	PS-110104	Colombo Central	4	Wolfendhal Street	6.9414459	79.856742	071-8591558	-	011-2323356	PS-110104	LK-1103110
Western	LK-1	LK-11	PS-1101	PS-110105	Colombo Central	5	Fort	6.933400199999999	79.8428946	071-8591560	011-2432635	011-2433744	PS-110105	LK-1103120
Western	LK-1	LK-11	PS-1101	PS-110106	Colombo Central	6	Slave Island	6.927317	79.8490036	071-8591561	011-2384382	011-2433829	PS-110106	LK-1103120
Western	LK-1	LK-11	PS-1101	PS-110107	Colombo Central	7	Maradana	6.9279389	79.8654711	071-8591563	011-2692888	011-2692748	PS-110107	LK-1103160
Western	LK-1	LK-11	PS-1101	PS-110108	Colombo Central	8	Maligawatta	6.934132399999999	79.8563053	071-8591564	011-2342041	011-2434135	PS-110108	LK-1103145
Western	LK-1	LK-11	PS-1102	PS-110209	Colombo North	9	Colombo Harbour	6.9411632	79.84274289999999	071-8591567	011-2328903	011-2320980	PS-110209	LK-1103120
Western	LK-1	LK-11	PS-1102	PS-110210	Colombo North	10	Fore shore	6.949588899999999	79.8573546	071-8591568	011-2436349	011-2434595	PS-110210	LK-1103050
Western	LK-1	LK-11	PS-1102	PS-110211	Colombo North	11	Modara	6.9648458	79.8685442	071-8591570	011-2523058	011-2524411	PS-110211	LK-1103030
Western	LK-1	LK-11	PS-1102	PS-110212	Colombo North	12	Kotahena	6.950878599999999	79.86249579999999	071-8591571	011-2435653	011-2431861	PS-110212	LK-1103050
Western	LK-1	LK-11	PS-1102	PS-110213	Colombo North	13	Mattakkuliya	6.9760103	79.8797565	071-8591572	-	011-2521761	PS-110213	LK-1103005
Western	LK-1	LK-11	PS-1102	PS-110214	Colombo North	14	Bluemandal	6.9330754	79.857181	071-8591573	-	011-2522733	PS-110214	
Western	LK-1	LK-11	PS-1102	PS-110215	Colombo North	15	Grandpass	6.9490522	79.8729828	071-8591575	011-2436258	011-2421414	PS-110215	LK-1103040
Western	LK-1	LK-11	PS-1102	PS-110216	Colombo North	16	Dematagoda	6.9303851	79.8771612	071-8591576	011-2693319	011-2693838	PS-110216	LK-1127035
Western	LK-1	LK-11	PS-1103	PS-110317	Colombo South	17	Kollupitiya	6.9141145	79.849048	071-8591579	011-2320131	011-2323689	PS-110317	LK-1127005
Western	LK-1	LK-11	PS-1103	PS-110318	Colombo South	18	Bambalapitiya	6.8920723	79.8557755	071-8591580	011-2583208	011-2588680	PS-110318	LK-1127065
Western	LK-1	LK-11	PS-1103	PS-110319	Colombo South	19	Kirulapone	6.8781222	79.8741591	071-8591582	011-2514634	011-2513531	PS-110319	LK-1127100
Western	LK-1	LK-11	PS-1103	PS-110320	Colombo South	20	Wellawatta	6.8731075	79.86167019999999	071-8591583	011-2364860	011-2588212	PS-110320	LK-1127090
Western	LK-1	LK-11	PS-1103	PS-110321	Colombo South	21	Narahenpita	6.891832099999999	79.87671499999999	071-8591584	011-2588638	011-2368242	PS-110321	LK-1127075
Western	LK-1	LK-11	PS-1103	PS-110322	Colombo South	22	BMICH	6.9095122	79.89515639999999	071-8591586	011-2691140	011-2691132	PS-110322	LK-1124020
Western	LK-1	LK-11	PS-1103	PS-110323	Colombo South	23	Borella	6.9152663	79.8782896	071-8591587	011-2694019	011-2693938	PS-110323	LK-1127045
Western	LK-1	LK-11	PS-1103	PS-110324	Colombo South	24	Cinnamon Garden	6.9072887	79.86381899999999	071-8591588	011-2693377	011-2695411	PS-110324	LK-1127015
Western	LK-1	LK-11	PS-1104	PS-110462	Nugegoda	62	Mirihana	6.8737138	79.9017235	071-8591644	011-2854853	011-2828566	PS-110462	LK-1124100
Western	LK-1	LK-11	PS-1104	PS-110463	Nugegoda	63	Maharagama	6.8454219	79.92892839999999	071-8591645	011-2850700	011-2850222	PS-110463	LK-1121165
Western	LK-1	LK-11	PS-1104	PS-110464	Nugegoda	64	Boralesgamuwa	6.8413308	79.9012553	071-8591646	011-2150779	011-2509461	PS-110464	LK-1136035
Western	LK-1	LK-11	PS-1104	PS-110465	Nugegoda	65	Wellampitiya	6.937514299999999	79.89629819999999	071-8591648	011-2695719	011-2572222	PS-110465	
Western	LK-1	LK-11	PS-1104	PS-110466	Nugegoda	66	Thalangama	6.9108901	79.9293251	071-8591649	011-2789249	011-2788079	PS-110466	LK-1109150
Western	LK-1	LK-11	PS-1104	PS-110467	Nugegoda	67	Welikada	6.9095122	79.89515639999999	071-8591650	011-2864060	011-2862522	PS-110467	LK-1124020
Western	LK-1	LK-11	PS-1104	PS-110468	Nugegoda	68	Nawagamuwa	6.9251691	80.0172066	071-8591652	011-2415212	011-2415222	PS-110468	LK-1109040
Western	LK-1	LK-11	PS-1104	PS-110469	Nugegoda	69	Mulleriyawa	6.9271866	79.92910789999999	071-8591653	-	011-2578279	PS-110469	LK-1106145
Western	LK-1	LK-11	PS-1104	PS-110470	Nugegoda	70	Homagama	6.8361548	80.0034745	071-8591655	011-2855211	011-2855222	PS-110470	LK-1112190
Western	LK-1	LK-11	PS-1104	PS-110471	Nugegoda	71	Kottawa	6.8413325	79.9635531	071-8591656	-	011-2782760	PS-110471	LK-1121155
Western	LK-1	LK-11	PS-1104	PS-110472	Nugegoda	72	Athurugiriya	6.872311499999999	79.9961062	071-8591657	011-2561202	011-2561222	PS-110472	LK-1109205
Western	LK-1	LK-11	PS-1104	PS-110473	Nugegoda	73	Padukka	6.842194999999999	80.09247049999999	071-8591659	011-2859110	011-2859027	PS-110473	LK-1118090
Western	LK-1	LK-11	PS-1104	PS-110474	Nugegoda	74	Hanwella	6.900815499999999	80.0874955	071-8591660	036-2253982	036-2255222	PS-110474	LK-1115205
Western	LK-1	LK-11	PS-1104	PS-110475	Nugegoda	75	Gothatuwa	6.9226166	79.9134752	071-8592154	011-2411131	011-2411146	PS-110475	
Western	LK-1	LK-11	PS-1104	PS-110476	Nugegoda	76	Meepe	6.854507799999999	80.0544421	071-8592179	-	011-2175450	PS-110476	LK-1112090
Western	LK-1	LK-11	PS-1105	PS-110577	Mount Lavinia	77	Mount Lavinia	6.8250065	79.87009019999999	071-8591664	011-2729622	011-2738351	PS-110577	LK-1131050
Western	LK-1	LK-11	PS-1105	PS-110578	Mount Lavinia	78	Piliyandala	6.8021493	79.9225651	071-8591665	011-2614258	011-2614222	PS-110578	LK-1136185
Western	LK-1	LK-11	PS-1105	PS-110579	Mount Lavinia	79	Angulana	6.8057748	79.869788	071-8591666	-	011-2626357	PS-110579	LK-1131055
Western	LK-1	LK-11	PS-1105	PS-110580	Mount Lavinia	80	Dehiwala	6.850087599999999	79.8716965	071-8591668	011-2713322	011-2738222	PS-110580	LK-1130070
Western	LK-1	LK-11	PS-1105	PS-110581	Mount Lavinia	81	Kohuwala	6.8673173	79.8836484	071-8591669	011-2853929	011-2852621	PS-110581	LK-1130015
Western	LK-1	LK-11	PS-1105	PS-110582	Mount Lavinia	82	Moratuwa	6.7729491	79.8850477	071-8591671	011-2645215	011-2645222	PS-110582	LK-1133160
Western	LK-1	LK-11	PS-1105	PS-110583	Mount Lavinia	83	Kahathuduwa	6.7831484	79.9860139	071-8591672	011-2705544	011-2705233	PS-110583	LK-1112375
Western	LK-1	LK-11	PS-1105	PS-110584	Mount Lavinia	84	Moratumulla	6.787303499999999	79.89506469999999	071-8591673	-	011-2653143	PS-110584	LK-1133135
Western	LK-1	LK-11	PS-1105	PS-110585	Mount Lavinia	85	Egoda Uyana	6.725967700000001	79.90114489999999	071-8592180	-	011-2659796	PS-110585	LK-1133205
Western	LK-1	LK-12	PS-1201	PS-120125	Kelaniya	25	Peliyagoda	6.9551929	79.8861198	071-8591592	011-2910608	011-2911222	PS-120125	LK-1236135
Western	LK-1	LK-12	PS-1201	PS-120126	Kelaniya	26	Kelaniya	6.950251499999999	79.9174586	071-8591593	011-2914666	011-2911922	PS-120126	LK-1236185
Western	LK-1	LK-12	PS-1201	PS-120127	Kelaniya	27	Kandana	7.0488309	79.8974076	071-8591595	011-2236895	011-2236333	PS-120127	LK-1221150
Western	LK-1	LK-12	PS-1201	PS-120128	Kelaniya	28	Wattala	6.993713	79.89450610000002	071-8591596	011-2932222	011-2930222	PS-120128	LK-1218180
Western	LK-1	LK-12	PS-1201	PS-120129	Kelaniya	29	Mahabage	7.0147396	79.898434	071-8591597	-	011-2948469	PS-120129	LK-1218120
Western	LK-1	LK-12	PS-1201	PS-120130	Kelaniya	30	Sapugaskanda	6.970586	79.95358809999999	071-8591599	011-2400316	011-2400315	PS-120130	LK-1239125
Western	LK-1	LK-12	PS-1201	PS-120131	Kelaniya	31	Biyagama	6.962283999999999	80.0090367	071-8591600	011-2487306	011-2487574	PS-120131	LK-1239155
Western	LK-1	LK-12	PS-1201	PS-120132	Kelaniya	32	Meegahawatta	6.988968	80.000356	071-8591601	-	011-2977233	PS-120132	LK-1239030
Western	LK-1	LK-12	PS-1201	PS-120133	Kelaniya	33	Ja - Ela	7.0810553	79.8905036	071-8591603	011-2236131	011-2236222	PS-120133	LK-1221060
Western	LK-1	LK-12	PS-1201	PS-120134	Kelaniya	34	Ragama	7.0349751	79.9241477	071-8591604	011-2957197	011-2958222	PS-120134	LK-1221265
Western	LK-1	LK-12	PS-1201	PS-120135	Kelaniya	35	Kiribathgoda	6.978004599999999	79.929433	071-8591606	011-2910494	011-2914985	PS-120135	LK-1236035
Western	LK-1	LK-12	PS-1201	PS-120136	Kelaniya	36	Kadawatha	7.0015198	79.95003000000001	071-8591607	011-2925258	011-2925222	PS-120136	
Western	LK-1	LK-12	PS-1202	PS-120237	Gampaha	37	Gampaha	7.0877653	80.0122797	071-8591611	033-2222226	033-2222224	PS-120237	LK-1224265
Western	LK-1	LK-12	PS-1202	PS-120238	Gampaha	38	Minuwangoda	7.1742149	79.9578738	071-8591612	011-2295223	011-2295222	PS-120238	LK-1215120
Western	LK-1	LK-12	PS-1202	PS-120239	Gampaha	39	Kirindiwela	7.043010799999999	80.1204492	071-8591614	033-2267445	033-2267222	PS-120239	LK-1230075
Western	LK-1	LK-12	PS-1202	PS-120240	Gampaha	40	Dompe	6.9491115	80.0577271	071-8591615	011-2409922	011-2409222	PS-120240	LK-1230530
Western	LK-1	LK-12	PS-1202	PS-120241	Gampaha	41	Pugoda	6.982829799999999	80.1111894	071-8591616	011-2405222	011-2405224	PS-120241	LK-1230395
Western	LK-1	LK-12	PS-1202	PS-120242	Gampaha	42	Ganemulla	7.066803999999999	79.9597508	071-8591618	033-2260911	033-2260222	PS-120242	LK-1224345
Western	LK-1	LK-12	PS-1202	PS-120243	Gampaha	43	Weeragula	7.0971557	80.0603986	071-8591619	033-2278020	033-2279442	PS-120243	LK-1227670
Western	LK-1	LK-12	PS-1202	PS-120244	Gampaha	44	Weliweriya	7.0345099	80.0261137	071-8591620	033-2256105	033-2255222	PS-120244	LK-1224485
Western	LK-1	LK-12	PS-1202	PS-120245	Gampaha	45	Malwathuhiripitiya	7.0542877	80.0693652	071-8591621	-	033-2278800	PS-120245	LK-1233080
Western	LK-1	LK-12	PS-1202	PS-120246	Gampaha	46	Nittambuwa	7.1497258	80.10046009999999	071-8591623	033-2287225	033-2287224	PS-120246	LK-1227095
Western	LK-1	LK-12	PS-1202	PS-120247	Gampaha	47	Weyangoda	7.1440531	80.09551139999999	071-8591624	033-2287223	033-2287222	PS-120247	LK-1227195
Western	LK-1	LK-12	PS-1202	PS-120248	Gampaha	48	Meerigama	7.2451692	80.12864739999999	071-8591625	033-2274322	033-2273222	PS-120248	LK-1212200
Western	LK-1	LK-12	PS-1202	PS-120249	Gampaha	49	Pallewela	7.197364799999999	80.0948561	071-8592152	033-2271416	033-2271413	PS-120249	LK-1212450
Western	LK-1	LK-12	PS-1202	PS-120250	Gampaha	50	Yakkala	7.0766215	80.0206546	071-8592153	-	033-2225924	PS-120250	LK-1224300
Western	LK-1	LK-12	PS-1203	PS-120351	Negombo	51	Negombo	7.2247964	79.88001469999999	071-8591630	031-2224289	031-2222222	PS-120351	LK-1206100
Western	LK-1	LK-12	PS-1203	PS-120352	Negombo	52	Kochchikade	7.265049400000001	79.8570264	071-8591631	031-2276338	031-2277222	PS-120352	LK-1203015
Western	LK-1	LK-12	PS-1203	PS-120353	Negombo	53	Pamunugama	7.0788917	79.8596955	071-8591633	011-2243494	011-2236340	PS-120353	LK-1218025
Western	LK-1	LK-12	PS-1203	PS-120354	Negombo	54	Kotadeniyawa	7.2836433	80.0664895	071-8591634	033-2240050	033-2272222	PS-120354	LK-1209210
Western	LK-1	LK-12	PS-1203	PS-120355	Negombo	55	Diulapitiya	7.1742149	79.9578738	071-8591635	031-2247256	031-2246222	PS-120355	LK-1215120
Western	LK-1	LK-12	PS-1203	PS-120356	Negombo	56	Seeduwa	7.1287213	79.8773709	071-8591637	011-2253522	011-2253522	PS-120356	LK-1206350
Western	LK-1	LK-12	PS-1203	PS-120357	Negombo	57	Raddolugama	7.140613200000001	79.90024919999999	071-8591638	-	011-2292857	PS-120357	LK-1206310
Western	LK-1	LK-12	PS-1203	PS-120358	Negombo	58	Katunayaka	7.1658979	79.88260729999999	071-8591639	011-2252223	011-2252222	PS-120358	LK-1206200
Western	LK-1	LK-12	PS-1203	PS-120360	Negombo	60	Katana	7.2247964	79.88001469999999	071-8591710	031-2227740	031-2227735	PS-120360	LK-1206100
Western	LK-1	LK-12	PS-1203	PS-120361	Negombo	61	Dungalpitiya	7.139226499999999	79.8335427	071-8592186	031-2230889	031-2230888	PS-120361	LK-1203185
Western	LK-1	LK-13	PS-1301	PS-130186	Panadura	86	Panadura South	6.7209414	79.9073149	071-8591677	038-2232576	038-2232222	PS-130186	LK-1303190
Western	LK-1	LK-13	PS-1301	PS-130187	Panadura	87	Panadura North	6.7496727	79.9002474	071-8591678	038-2297804	038-2233204	PS-130187	LK-1303050
Western	LK-1	LK-13	PS-1301	PS-130188	Panadura	88	Wadduwa	6.6644027	79.9298512	071-8591679	038-2284855	038-2232522	PS-130188	LK-1303345
Western	LK-1	LK-13	PS-1301	PS-130189	Panadura	89	Bandaragama	6.7151786	79.98767420000001	071-8591681	038-2293922	038-2290222	PS-130189	LK-1306150
Western	LK-1	LK-13	PS-1301	PS-130190	Panadura	90	Anguruwatota	6.654997400000001	80.05818289999999	071-8591682	034-2251420	034-2251344	PS-130190	LK-1315115
Western	LK-1	LK-13	PS-1301	PS-130191	Panadura	91	Millaniya	6.681692099999999	80.0208468	071-8591683	034-2252722	034-2252222	PS-130191	LK-1318050
Western	LK-1	LK-13	PS-1301	PS-130192	Panadura	92	Horana	6.7146133	80.0690912	071-8591685	034-2261223	034-2261222	PS-130192	LK-1309280
Western	LK-1	LK-13	PS-1301	PS-130193	Panadura	93	Ingiriya	6.7436139	80.1750771	071-8591686	034-2269223	034-2269222	PS-130193	LK-1310090
Western	LK-1	LK-13	PS-1301	PS-130194	Panadura	94	Moragahahena	6.785840299999999	80.0652212	071-8591687	034-2253253	034-2254524	PS-130194	LK-1309025
Western	LK-1	LK-13	PS-1301	PS-130195	Panadura	95	Moronthuduwa	6.660211899999999	79.9728178	071-8592138	-	038-2295599	PS-130195	LK-1321075
Western	LK-1	LK-13	PS-1302	PS-1302100	Kalutara	100	Aluthgama	6.4328421	79.9980319	071-8591697	034-2271350	034-2275222	PS-1302100	LK-1324410
Western	LK-1	LK-13	PS-1302	PS-1302101	Kalutara	101	Welipanna	6.4674282	80.1083135	071-8591698	-	034-2274423	PS-1302101	LK-1330180
Western	LK-1	LK-13	PS-1302	PS-1302102	Kalutara	102	Beruwala	6.4803295	79.98349759999999	071-8591699	034-2279966	034-2276322	PS-1302102	LK-1324220
Western	LK-1	LK-13	PS-1302	PS-1302103	Kalutara	103	Mathugama	6.520880699999999	80.117908	071-8591701	034-2247120	034-2247222	PS-1302103	LK-1330060
Western	LK-1	LK-13	PS-1302	PS-1302104	Kalutara	104	Bulathsinhala	6.6504248	80.17703	071-8591702	034-2282292	034-2283122	PS-1302104	LK-1312110
Western	LK-1	LK-13	PS-1302	PS-1302105	Kalutara	105	Thebuwana	6.654997400000001	80.05818289999999	071-8591703	-	034-2242122	PS-1302105	LK-1315115
Western	LK-1	LK-13	PS-1302	PS-1302106	Kalutara	106	Baduraliya	6.516756099999999	80.22671629999999	071-8591705	-	034-2244422	PS-1302106	LK-1336115
Western	LK-1	LK-13	PS-1302	PS-1302107	Kalutara	107	Meegahathenna	6.436941300000001	80.1942998	071-8591706	-	034-2284022	PS-1302107	LK-1339045
Western	LK-1	LK-13	PS-1302	PS-1302108	Kalutara	108	Thiniyawala	6.410453899999999	80.3286262	071-8591707	-	091-3783119	PS-1302108	LK-1336215
Western	LK-1	LK-13	PS-1302	PS-1302111	Kalutara	111	Mattegoda	6.815277	79.9721359	071-8592207	-	011-2783776	PS-1302111	LK-1112235
Western	LK-1	LK-13	PS-1302	PS-130296	Kalutara	96	Kalutara South	6.584860099999999	79.96104319999999	071-8591691	034-2222226	034-2222223	PS-130296	LK-1321280
Western	LK-1	LK-13	PS-1302	PS-130297	Kalutara	97	Kalutara North	6.602049399999999	79.95604159999999	071-8591692	034-2237841	034-2237225	PS-130297	LK-1321255
Western	LK-1	LK-13	PS-1302	PS-130298	Kalutara	98	Payagala	6.5411438	79.9748549	071-8591694	034-2222751	034-2222750	PS-130298	LK-1324030
Western	LK-1	LK-13	PS-1302	PS-130299	Kalutara	99	Dodangoda	6.553374799999999	80.0235692	071-8591695	-	034-2281622	PS-130299	LK-1327180
Central	LK-2	LK-21	PS-2101	PS-210101	Kandy	1	Kandy	7.292947799999999	80.64236819999999	071-8591045	081-2222226	081-2222222	PS-210101	LK-2130135
Central	LK-2	LK-21	PS-2101	PS-210102	Kandy	2	Dalada Maligawa	7.292947799999999	80.64236819999999	071-8591046	-	081-2225722	PS-210102	LK-2130135
Central	LK-2	LK-21	PS-2101	PS-210103	Kandy	3	Katugastota	7.332014399999999	80.62300599999999	071-8591048	081-2499383	081-2499222	PS-210103	LK-2112245
Central	LK-2	LK-21	PS-2101	PS-210104	Kandy	4	Ankumbura	7.4388263	80.5719388	071-8591049	-	066-2240222	PS-210104	LK-2106015
Central	LK-2	LK-21	PS-2101	PS-210105	Kandy	5	Galagedara	7.3736827	80.52615449999999	071-8591050	-	081-2461222	PS-210105	LK-2103045
Central	LK-2	LK-21	PS-2101	PS-210106	Kandy	6	Hatharaliyadda	7.336886000000001	80.47181429999999	071-8591051	-	081-2464456	PS-210106	LK-2134100
Central	LK-2	LK-21	PS-2101	PS-210107	Kandy	7	Thalathuoya	7.251660099999999	80.68952809999999	071-8591054	-	081-2404384	PS-210107	LK-2145045
Central	LK-2	LK-21	PS-2101	PS-210108	Kandy	8	Hanguranketha	7.176511499999999	80.7773879	071-8591055	081-2369223	081-2369222	PS-210108	LK-2306140
Central	LK-2	LK-21	PS-2101	PS-210109	Kandy	9	Pallekele	7.279687999999999	80.6829453	071-8591056	-	081-2423157	PS-210109	
Central	LK-2	LK-21	PS-2101	PS-210110	Kandy	10	Peradeniya	7.267283399999999	80.6019012	071-8591058	081-2388033	081-2388222	PS-210110	LK-2130180
Central	LK-2	LK-21	PS-2101	PS-210111	Kandy	11	Daulagala	7.227282600000001	80.57440869999999	071-8591059	-	081-2315032	PS-210111	LK-2139315
Central	LK-2	LK-21	PS-2101	PS-210112	Kandy	12	Kadugannawa	7.256285499999999	80.5169075	071-8591060	081-2571416	081-2571222	PS-210112	LK-2136470
Central	LK-2	LK-21	PS-2101	PS-210113	Kandy	13	Alawathugoda	7.388279700000001	80.61882399999999	071-8591062	-	066-2244322	PS-210113	LK-2109060
Central	LK-2	LK-21	PS-2101	PS-210114	Kandy	14	Welambada	7.201767599999999	80.5441658	071-8592131	-	081-2077737	PS-210114	LK-2139505
Central	LK-2	LK-21	PS-2101	PS-210115	Kandy	15	Poojapitiya	7.3729379	80.5876189	071-8592130	-	081-2307230	PS-210115	LK-2106225
Central	LK-2	LK-21	PS-2102	PS-210216	Gampola	16	Gampola	7.1329414	80.56799	071-8591073	081-2352319	081-2352222	PS-210216	LK-2154125
Central	LK-2	LK-21	PS-2102	PS-210217	Gampola	17	Pussellawa	7.1153343	80.63555319999999	071-8591074	081-2478360	081-2478222	PS-210217	LK-2151210
Central	LK-2	LK-21	PS-2102	PS-210218	Gampola	18	Nawa Kurunduwatta	7.1263573	80.53028599999999	071-8591075	081-2357222	081-2350406	PS-210218	LK-2154055
Central	LK-2	LK-21	PS-2102	PS-210219	Gampola	19	Nawalapitiya	7.057354900000001	80.53607500000001	071-8591077	054-2222427	054-2222222	PS-210219	LK-2157070
Central	LK-2	LK-21	PS-2102	PS-210220	Gampola	20	Galaha	7.1960745	80.66996069999999	071-8591078	-	081-2467222	PS-210220	LK-2148025
Central	LK-2	LK-21	PS-2103	PS-210356	Theldeniya	56	Theldeniya	7.309853299999999	80.76425979999999	071-8591066	081-2375719	081-2374073	PS-210356	LK-2124335
Central	LK-2	LK-21	PS-2103	PS-210357	Theldeniya	57	Wattegama	7.3506027	80.6833497	071-8591063	081-2476328	081-2476222	PS-210357	LK-2112070
Central	LK-2	LK-21	PS-2103	PS-210358	Theldeniya	58	Ududumbara	7.318132800000001	80.8791	071-8591068	-	081-2402222	PS-210358	LK-2118140
Central	LK-2	LK-21	PS-2103	PS-210359	Theldeniya	59	Manikhinna	7.3171707	80.7022525	071-8591053	-	081-2374222	PS-210359	LK-2127110
Central	LK-2	LK-21	PS-2103	PS-210360	Theldeniya	60	Rangala	7.3308997	80.7735594	071-8591069	-	081-2400222	PS-210360	LK-2124150
Central	LK-2	LK-21	PS-2103	PS-210361	Theldeniya	61	Panwila	7.3623551	80.7137311	071-8591065	081-2472223	081-2472222	PS-210361	LK-2115070
Central	LK-2	LK-21	PS-2103	PS-210362	Theldeniya	62	Hasalaka	7.353096499999999	80.9544403	071-8591067	-	055-2257122	PS-210362	LK-2121140
Central	LK-2	LK-22	PS-2201	PS-220121	Matale	21	Matale	7.4627889	80.6262106	071-8591082	066-2222226	066-2222222	PS-220121	LK-2218225
Central	LK-2	LK-22	PS-2201	PS-220122	Matale	22	Rattota	7.5206842	80.67880869999999	071-8591083	066-2255224	066-2255222	PS-220122	LK-2230035
Central	LK-2	LK-22	PS-2201	PS-220123	Matale	23	Mahawela	7.5892475	80.6102695	071-8591084	-	066-2247222	PS-220123	LK-2215020
Central	LK-2	LK-22	PS-2201	PS-220124	Matale	24	Yatawatta	7.563527	80.56796709999999	071-8591085	-	066-2056888	PS-220124	LK-2215145
Central	LK-2	LK-22	PS-2201	PS-220125	Matale	25	Laggala	7.5496339	80.8354282	071-8591087	-	066-3669224	PS-220125	LK-2224105
Central	LK-2	LK-22	PS-2201	PS-220126	Matale	26	Naula	7.6920512	80.6496304	071-8591088	-	066-2246222	PS-220126	LK-2209175
Central	LK-2	LK-22	PS-2201	PS-220127	Matale	27	Wilgamuwa	7.5420122	80.9164957	071-8591089	-	066-2250092	PS-220127	LK-2227110
Central	LK-2	LK-22	PS-2201	PS-220128	Matale	28	Dambulla	7.862080300000001	80.6491662	071-8591091	066-2284703	066-2275222	PS-220128	LK-2206170
Central	LK-2	LK-22	PS-2201	PS-220129	Matale	29	Galewela	7.7632438	80.57414899999999	071-8591092	-	066-2289222	PS-220129	LK-2203170
Central	LK-2	LK-22	PS-2201	PS-220130	Matale	30	Sigiriya	7.9424301	80.73250209999999	071-8591093	-	066-2286222	PS-220130	LK-2206050
Central	LK-2	LK-23	PS-2301	PS-230131	Nuwaraeliya	31	Nuwaraeliya	6.9741478	80.7676274	071-8591097	052-2222226	052-2222222	PS-230131	LK-2312170
Central	LK-2	LK-23	PS-2301	PS-230132	Nuwaraeliya	32	Pudalu oya	6.9072887	79.86381899999999	071-8591098	051-2233422	051-2233222	PS-230132	LK-1127015
Central	LK-2	LK-23	PS-2301	PS-230133	Nuwaraeliya	33	Nanuoya	6.939691900000001	80.74418490000001	071-8591099	052-2222667	052-2222722	PS-230133	LK-2312155
Central	LK-2	LK-23	PS-2301	PS-230134	Nuwaraeliya	34	Kotmale	7.0636017	80.6850539	071-8591100	052-2259544	052-2259877	PS-230134	LK-2303075
Central	LK-2	LK-23	PS-2301	PS-230135	Nuwaraeliya	35	Kandapola	6.997489099999999	80.8236352	071-8591101	052-2229889	052-2229522	PS-230135	LK-2312050
Central	LK-2	LK-23	PS-2301	PS-230136	Nuwaraeliya	36	Thalawakale	6.9381982	80.66210520000001	071-8591103	052-2258579	052-2258222	PS-230136	LK-2312090
Central	LK-2	LK-23	PS-2301	PS-230137	Nuwaraeliya	37	Agarapathana	6.8838095	80.69283399999999	071-8591104	051-2230332	051-2230222	PS-230137	LK-2312275
Central	LK-2	LK-23	PS-2301	PS-230138	Nuwaraeliya	38	Lindula	6.9270273	80.68674419999999	071-8591105	052-2258411	052-2258340	PS-230138	LK-2312135
Central	LK-2	LK-23	PS-2301	PS-230139	Nuwaraeliya	39	Dimbulapathana	6.952216399999999	80.628292	071-8591106	051-2244427	051-2244222	PS-230139	LK-2312100
Central	LK-2	LK-23	PS-2301	PS-230140	Nuwaraeliya	40	Dayagama	6.8546425	80.7489183	071-8591107	-	051-2230003	PS-230140	LK-2312320
Central	LK-2	LK-23	PS-2301	PS-230141	Nuwaraeliya	41	Walapone	7.093347899999999	80.8625134	071-8591109	052-2279351	052-2279122	PS-230141	LK-2309265
Central	LK-2	LK-23	PS-2301	PS-230142	Nuwaraeliya	42	Ragala	7.0123475	80.858498	071-8591110	052-2265788	052-2265222	PS-230142	LK-2309585
Central	LK-2	LK-23	PS-2301	PS-230143	Nuwaraeliya	43	Udupussellawa	6.9582543	80.9302915	071-8591111	052-2269388	052-2269322	PS-230143	LK-8127215
Central	LK-2	LK-23	PS-2301	PS-230144	Nuwaraeliya	44	Maturata	7.0798732	80.8018711	071-8591112	052-2287445	052-2287022	PS-230144	LK-2306550
Central	LK-2	LK-23	PS-2301	PS-230145	Nuwaraeliya	45	Theripaha	7.074367	80.9182421	071-8591113	-	052-3527208	PS-230145	LK-2309210
Central	LK-2	LK-23	PS-2301	PS-230146	Nuwaraeliya	46	Mandaram Nuwara	7.038015199999999	80.7822146	071-8592125	-	052-3055557	PS-230146	LK-2306645
Central	LK-2	LK-23	PS-2301	PS-230147	Nuwaraeliya	47	Pattipola	6.8566204	80.8313855	071-8592127	-	011-3024227	PS-230147	LK-8130150
Central	LK-2	LK-23	PS-2302	PS-230248	Hatton	48	Hatton	6.8983949	80.5963669	071-8591117	051-2222520	051-2222222	PS-230248	LK-2315215
Central	LK-2	LK-23	PS-2302	PS-230249	Hatton	49	Watawala	6.9456909	80.5378812	071-8591118	-	051-2237022	PS-230249	LK-2315160
Central	LK-2	LK-23	PS-2302	PS-230250	Hatton	50	Ginigathhena	6.9891362	80.4940274	071-8591120	051-2242355	051-2242222	PS-230250	LK-2315100
Central	LK-2	LK-23	PS-2302	PS-230251	Hatton	51	Nortonbridge	6.913699299999999	80.5209768	071-8591121	051-2232206	051-2232222	PS-230251	LK-2315150
Central	LK-2	LK-23	PS-2302	PS-230252	Hatton	52	Nallathanni	7.0788917	79.8596955	071-8591122	052-2022500	052-2055522	PS-230252	LK-1218025
Central	LK-2	LK-23	PS-2302	PS-230253	Hatton	53	Bogawanthalawa	6.794514299999999	80.6795535	071-8591124	-	052-2267522	PS-230253	LK-2315325
Central	LK-2	LK-23	PS-2302	PS-230254	Hatton	54	Norwood	6.8371952	80.6142395	071-8591125	-	051-2240222	PS-230254	LK-2315250
Central	LK-2	LK-23	PS-2302	PS-230255	Hatton	55	Maskeliya	6.913699299999999	80.5209768	071-8591126	-	052-2277222	PS-230255	LK-2315150
Southern	LK-3	LK-31	PS-3101	PS-310120	Galle	20	Galle	6.032983199999999	80.2171401	071-8591455	091-2234962	091-2222222	PS-310120	LK-3139225
Southern	LK-3	LK-31	PS-3101	PS-310121	Galle	21	Ratgama	6.1451151	80.09969330000001	071-8591456	091-2267575	091-2267222	PS-310121	LK-3136200
Southern	LK-3	LK-31	PS-3101	PS-310122	Galle	22	Hikkaduwa	6.1451151	80.09969330000001	071-8591457	-	091-2277222	PS-310122	LK-3136200
Southern	LK-3	LK-31	PS-3101	PS-310123	Galle	23	Akmeemana	6.0734534	80.27662749999999	071-8591459	-	091-2234223	PS-310123	LK-3145020
Southern	LK-3	LK-31	PS-3101	PS-310124	Galle	24	Wanduramba	6.125699699999999	80.2529855	071-8591460	-	091-2292292	PS-310124	LK-3127235
Southern	LK-3	LK-31	PS-3101	PS-310125	Galle	25	Yakkalamulla	6.1061857	80.3481517	071-8591461	-	091-2286022	PS-310125	LK-3148150
Southern	LK-3	LK-31	PS-3101	PS-310126	Galle	26	Poddala	6.1214493	80.21062909999999	071-8591462	091-3903300	091-2292322	PS-310126	LK-3127255
Southern	LK-3	LK-31	PS-3101	PS-310127	Galle	27	Habaraduwa	5.9871001	80.3270979	071-8591464	091-2283281	091-2283344	PS-310127	LK-3154165
Southern	LK-3	LK-31	PS-3101	PS-310128	Galle	28	Ahangama	5.972267200000001	80.365256	071-8591465	-	091-2283222	PS-310128	LK-3154265
Southern	LK-3	LK-31	PS-3101	PS-310129	Galle	29	Galle Harbour	6.0330609	80.2342661	071-8591466	-	091-2234122	PS-310129	LK-3139235
Southern	LK-3	LK-31	PS-3101	PS-310130	Galle	30	Nagoda	6.1976163	80.2747071	071-8591468	-	091-2296422	PS-310130	LK-3124095
Southern	LK-3	LK-31	PS-3101	PS-310131	Galle	31	Hiniduma	6.3295166	80.3224422	071-8591469	-	091-3783333	PS-310131	LK-3118055
Southern	LK-3	LK-31	PS-3101	PS-310132	Galle	32	Neluwa	6.379651099999999	80.35895579999999	071-8591470	-	091-3783009	PS-310132	LK-3121065
Southern	LK-3	LK-31	PS-3101	PS-310133	Galle	33	Udugama	6.210944	80.33961649999999	071-8591471	-	091-2285022	PS-310133	
Southern	LK-3	LK-31	PS-3101	PS-310134	Galle	34	Imaduwa	6.0343895	80.39105529999999	071-8592156	091-2286011	091-3090222	PS-310134	LK-3151130
Southern	LK-3	LK-31	PS-3102	PS-310235	Elpitiya	35	Elpitiya	6.279163199999999	80.1429167	071-8591475	091-2291226	091-2291222	PS-310235	LK-3112200
Southern	LK-3	LK-31	PS-3102	PS-310236	Elpitiya	36	Uragasmanhandiya	6.343756099999999	80.0806791	071-8591476	-	091-2264062	PS-310236	LK-3109030
Southern	LK-3	LK-31	PS-3102	PS-310237	Elpitiya	37	Pitigala	6.335202	80.2211487	071-8591477	-	091-2291224	PS-310237	LK-3112035
Southern	LK-3	LK-31	PS-3102	PS-310238	Elpitiya	38	Karandeniya	6.271732399999999	80.0847896	071-8591478	-	091-2255458	PS-310238	LK-3109140
Southern	LK-3	LK-31	PS-3102	PS-310239	Elpitiya	39	Baddegama	6.172566300000001	80.1749665	071-8591480	-	091-2292222	PS-310239	LK-3127020
Southern	LK-3	LK-31	PS-3102	PS-310241	Elpitiya	41	Meetiyagoda	6.1894217	80.0947221	071-8591481	-	091-2260423	PS-310241	LK-3133170
Southern	LK-3	LK-31	PS-3102	PS-310242	Elpitiya	42	Thelikada	6.125201700000001	80.1807171	071-8591482	-	091-2292323	PS-310242	LK-3127180
Southern	LK-3	LK-31	PS-3102	PS-310243	Elpitiya	43	Ambalangoda	6.2449578	80.0475982	071-8591484	091-2258225	091-2258222	PS-310243	LK-3133005
Southern	LK-3	LK-31	PS-3102	PS-310244	Elpitiya	44	Ahungalla	6.299873	80.0385599	071-8591485	-	091-2264026	PS-310244	LK-3106120
Southern	LK-3	LK-31	PS-3102	PS-310245	Elpitiya	45	Kosgoda	6.335781799999999	80.0301822	071-8591486	-	091-2264022	PS-310245	LK-3106070
Southern	LK-3	LK-31	PS-3102	PS-310246	Elpitiya	46	Bentota	6.422232600000001	79.9968969	071-8591487	-	034-2275022	PS-310246	LK-3103035
Southern	LK-3	LK-32	PS-3201	PS-320101	Matara	1	Matara	5.9490397	80.5336586	071-8591436	041-2222727	041-2222223	PS-320101	LK-3242205
Southern	LK-3	LK-32	PS-3201	PS-320102	Matara	2	Gandara	5.9416293	80.614037	071-8591437	041-2259159	041-2259222	PS-320102	LK-3245135
Southern	LK-3	LK-32	PS-3201	PS-320103	Matara	3	Dikwella	5.9642961	80.6931978	071-8591438	041-2255277	041-2255222	PS-320103	LK-3248165
Southern	LK-3	LK-32	PS-3201	PS-320104	Matara	4	Thihagoda	6.0133095	80.5679316	071-8591439	041-2245271	041-2245222	PS-320104	LK-3236065
Southern	LK-3	LK-32	PS-3201	PS-320105	Matara	5	Kamburupitiya	6.0738748	80.56457879999999	071-8591440	041-2292223	041-2292222	PS-320105	LK-3227080
Southern	LK-3	LK-32	PS-3201	PS-320106	Matara	6	Hakmana	6.0848242	80.643227	071-8591442	041-2286223	041-2286222	PS-320106	LK-3230090
Southern	LK-3	LK-32	PS-3201	PS-320107	Matara	7	Morawaka	6.2567767	80.49365449999999	071-8591443	041-2282323	041-2282222	PS-320107	LK-3203080
Southern	LK-3	LK-32	PS-3201	PS-320108	Matara	8	Urubokka	6.3102572	80.6290135	071-8591444	041-2272223	041-2272222	PS-320108	LK-3209075
Southern	LK-3	LK-32	PS-3201	PS-320109	Matara	9	Mawarala	6.198061	80.58704519999999	071-8591445	041-2291348	041-2291222	PS-320109	LK-3209215
Southern	LK-3	LK-32	PS-3201	PS-320110	Matara	10	Deniyaya	6.341435499999999	80.55871929999999	071-8591446	041-2273710	041-2273222	PS-320110	LK-3206080
Southern	LK-3	LK-32	PS-3201	PS-320111	Matara	11	Weligama	5.9733015	80.4264547	071-8591448	041-2250226	041-2250222	PS-320111	LK-3239125
Southern	LK-3	LK-32	PS-3201	PS-320112	Matara	12	Akuressa	6.0990441	80.47760009999999	071-8591449	041-2283530	041-2283222	PS-320112	LK-3218165
Southern	LK-3	LK-32	PS-3201	PS-320113	Matara	13	Kananke	6.0413723	80.4072219	071-8591450	-	091-2286822	PS-320113	LK-3221010
Southern	LK-3	LK-32	PS-3201	PS-320114	Matara	14	Pitabeddara	6.2036747	80.4750037	071-8591451	-	041-2281262	PS-320114	LK-3203115
Southern	LK-3	LK-32	PS-3201	PS-320115	Matara	15	Kotawila	5.967552599999999	80.4939212	071-8592137	041-2232001	041-2237457	PS-320115	LK-3239080
Southern	LK-3	LK-32	PS-3201	PS-320116	Matara	16	Kosmodara	6.2900186	80.5603374	071-8592129	-	041-2271222	PS-320116	LK-3206155
Southern	LK-3	LK-32	PS-3201	PS-320117	Matara	17	Malimbada	6.0105029	80.5174376	071-8592143	-	041-2241222	PS-320117	LK-3224095
Southern	LK-3	LK-32	PS-3201	PS-320118	Matara	18	Rotumba	6.229548400000001	80.5590967	071-8592139	-	041-3021874	PS-320118	LK-3209200
Southern	LK-3	LK-32	PS-3201	PS-320119	Matara	19	Deyyandara	6.198061	80.58704519999999	071-8592140	-	041-2268783	PS-320119	LK-3209215
Southern	LK-3	LK-33	PS-3301	PS-330147	Tangalle	47	Tangalle	6.023954	80.79725499999999	071-8591491	047-2240223	047-2240222	PS-330147	LK-3333255
Southern	LK-3	LK-33	PS-3301	PS-330148	Tangalle	48	Hungama	6.1112616	80.93264219999999	071-8591492	-	047-2226022	PS-330148	
Southern	LK-3	LK-33	PS-3301	PS-330149	Tangalle	49	Weeraketiya	6.1538993	80.76736989999999	071-8591493	-	047-2246222	PS-330149	LK-3321240
Southern	LK-3	LK-33	PS-3301	PS-330150	Tangalle	50	Angunakolapelessa	6.3219927	80.844883	071-8591494	-	047-2228222	PS-330150	LK-9148125
Southern	LK-3	LK-33	PS-3301	PS-330151	Tangalle	51	Walasmulla	6.154102399999999	80.69825639999999	071-8591496	-	047-2245222	PS-330151	LK-3325245
Southern	LK-3	LK-33	PS-3301	PS-330152	Tangalle	52	Beliatta	6.046936	80.7354084	071-8591497	-	047-2243222	PS-330152	LK-3330190
Southern	LK-3	LK-33	PS-3301	PS-330153	Tangalle	53	Katuwana	6.2697218	80.6909635	071-8591498	-	047-2247390	PS-330153	LK-3324175
Southern	LK-3	LK-33	PS-3301	PS-330154	Tangalle	54	Middeniya	6.2482753	80.7650176	071-8591499	-	047-2247222	PS-330154	LK-3324090
Southern	LK-3	LK-33	PS-3301	PS-330155	Tangalle	55	Sooriyawewa	6.3060221	81.0038735	071-8591501	-	047-2289022	PS-330155	LK-3303060
Southern	LK-3	LK-33	PS-3301	PS-330156	Tangalle	56	Hambantota	6.1258722	81.1252097	071-8591502	047-2220223	047-2220222	PS-330156	LK-3312120
Southern	LK-3	LK-33	PS-3301	PS-330157	Tangalle	57	Ambalantota	6.1251603	81.0239813	071-8591503	047-2223223	047-2223222	PS-330157	LK-3315260
Southern	LK-3	LK-33	PS-3301	PS-330158	Tangalle	58	Tissamaharamaya	6.2610896	81.23672429999999	071-8591505	047-2237233	047-2237222	PS-330158	LK-3309125
Southern	LK-3	LK-33	PS-3301	PS-330159	Tangalle	59	Kataragama	6.4135201	81.33136789999999	071-8591506	047-2235223	047-2235222	PS-330159	LK-8227015
Southern	LK-3	LK-33	PS-3301	PS-330160	Tangalle	60	Lunugamwehera	6.3415436	81.20269909999999	071-8591507	-	047-2237224	PS-330160	LK-3306045
Southern	LK-3	LK-33	PS-3301	PS-330161	Tangalle	61	Weeravila	6.2610896	81.23672429999999	071-8592109	047-2238239	047-2238229	PS-330161	LK-3309125
Southern	LK-3	LK-33	PS-3301	PS-330162	Tangalle	62	Kirinda	6.220796099999999	81.33687739999999	071-8592240	-	047-3489722	PS-330162	LK-3309010
Northern	LK-4	LK-41	PS-4101	PS-410101	Kankasanthurai	1	Kankasanthurai	9.8062378	80.0470304	071-8591318	021-3202305	021-2059907	PS-410101	LK-4112120
Northern	LK-4	LK-41	PS-4101	PS-410102	Kankasanthurai	2	Ilavalai	9.775967399999999	79.9831456	071-8591319	-	021-2211922	PS-410102	LK-4109090
Northern	LK-4	LK-41	PS-4101	PS-410103	Kankasanthurai	3	Achchuweli	6.934132399999999	79.8563053	071-8591320	-	021-2058585	PS-410103	LK-1103145
Northern	LK-4	LK-41	PS-4101	PS-410104	Kankasanthurai	4	Thelippalay	6.9330754	79.857181	071-8591321	-	021-2240222	PS-410104	
Northern	LK-4	LK-41	PS-4101	PS-410105	Kankasanthurai	5	Palali	9.7895521	80.0648799	071-8591323	021-3202668	021-2213900	PS-410105	LK-4112175
Northern	LK-4	LK-41	PS-4101	PS-410106	Kankasanthurai	6	Point Pedro	9.8270184	80.2331865	071-8591324	-	021-2263227	PS-410106	LK-4127095
Northern	LK-4	LK-41	PS-4101	PS-410107	Kankasanthurai	7	Valvettiththurai	9.8232162	80.1696326	071-8591325	-	021-2263573	PS-410107	LK-4127050
Northern	LK-4	LK-41	PS-4101	PS-410108	Kankasanthurai	8	Nelliadi	9.7783968	80.1133025	071-8591326	-	021-2263222	PS-410108	LK-4118155
Northern	LK-4	LK-41	PS-4102	PS-410209	Jaffna	9	Jaffna	9.6599186	80.0109655	071-8591329	021-3211257	021-2222222	PS-410209	LK-4136105
Northern	LK-4	LK-41	PS-4102	PS-410210	Jaffna	10	Manippai	9.7271507	79.9969053	071-8591330	-	021-2255160	PS-410210	LK-4109060
Northern	LK-4	LK-41	PS-4102	PS-410211	Jaffna	11	Chunnakam	9.7453094	80.0291508	071-8591331	-	021-2240323	PS-410211	LK-4115080
Northern	LK-4	LK-41	PS-4102	PS-410212	Jaffna	12	Kayts	9.7286536	79.9477498	071-8591333	021-3205483	021-3215390	PS-410212	LK-4106050
Northern	LK-4	LK-41	PS-4102	PS-410213	Jaffna	13	Delft	9.5267819	79.7019643	071-8591334	021-2215222	021-3213337	PS-410213	LK-4142015
Northern	LK-4	LK-41	PS-4102	PS-410214	Jaffna	14	Vaddukoddai	9.7286536	79.9477498	071-8591335	-	021-2250222	PS-410214	LK-4106050
Northern	LK-4	LK-41	PS-4102	PS-410215	Jaffna	15	Chawakachcheri	9.6664589	80.13238369999999	071-8591337	-	021-2270722	PS-410215	LK-4130105
Northern	LK-4	LK-41	PS-4102	PS-410216	Jaffna	16	Kopai	9.6868875	80.0385599	071-8591338	-	021-2224022	PS-410216	LK-4118015
Northern	LK-4	LK-41	PS-4102	PS-410217	Jaffna	17	Kodikamam	9.6664589	80.13238369999999	071-8591339	-	021-2050222	PS-410217	LK-4130105
Northern	LK-4	LK-42	PS-4201	PS-420138	Mannar	38	Mannar	8.9781233	79.91164189999999	071-8591365	023-2222227	023-2222222	PS-420138	LK-4203180
Northern	LK-4	LK-42	PS-4201	PS-420139	Mannar	39	Silawathura	6.891460899999999	79.8561986	071-8591366	-	023-3233677	PS-420139	LK-1127065
Northern	LK-4	LK-42	PS-4201	PS-420140	Mannar	40	Iluppakadawai	6.9072887	79.86381899999999	071-8591368	-	023-2338049	PS-420140	LK-1127015
Northern	LK-4	LK-42	PS-4201	PS-420141	Mannar	41	Wedithalathiu	6.9095122	79.89515639999999	071-8591369	023-2050840	023-2050890	PS-420141	LK-1124020
Northern	LK-4	LK-42	PS-4201	PS-420142	Mannar	42	Thalaimannar	9.0920828	79.7275338	071-8591370	-	023-2281033	PS-420142	LK-4203020
Northern	LK-4	LK-42	PS-4201	PS-420143	Mannar	43	Murunkan	8.8381863	80.03829790000002	071-8591372	-	023-2050353	PS-420143	LK-4212065
Northern	LK-4	LK-42	PS-4201	PS-420144	Mannar	44	Madu	6.9141145	79.849048	071-8591373	-	023-3233678	PS-420144	LK-1127005
Northern	LK-4	LK-42	PS-4201	PS-420145	Mannar	45	Wankala	6.9152663	79.8782896	071-8592119	023-3232364	023-3230836	PS-420145	LK-1127045
Northern	LK-4	LK-42	PS-4201	PS-420146	Mannar	46	Pesale	9.084428599999999	79.8186619	071-8592120	023-2050238	023-3230917	PS-420146	LK-4203045
Northern	LK-4	LK-43	PS-4301	PS-430118	Vavuniya	18	Kanagarayankulam	9.084930199999999	80.4798575	071-8591358	021-3205956	024-2051336	PS-430118	LK-4303100
Northern	LK-4	LK-43	PS-4301	PS-430119	Vavuniya	19	Vavuniya	8.7544309	80.498604	071-8591343	024-2222226	024-2222222	PS-430119	LK-4309100
Northern	LK-4	LK-43	PS-4301	PS-430120	Vavuniya	20	Irattaperiyakulam	7.0015198	79.95003000000001	071-8591344	-	024-2223522	PS-430120	
Northern	LK-4	LK-43	PS-4301	PS-430121	Vavuniya	21	Nedumkenrni	7.1287213	79.8773709	071-8591362	-	024-2053008	PS-430121	LK-1206350
Northern	LK-4	LK-43	PS-4301	PS-430122	Vavuniya	22	Chettikulam	8.6509806	80.3147589	071-8591346	024-2260945	024-2260907	PS-430122	LK-4312085
Northern	LK-4	LK-43	PS-4301	PS-430123	Vavuniya	23	Omantha	8.8471905	80.49784079999999	071-8591360	-	024-2052704	PS-430123	LK-4309105
Northern	LK-4	LK-43	PS-4301	PS-430124	Vavuniya	24	Puliyankulam	8.9676688	80.5264646	071-8591359	-	024-2051932	PS-430124	LK-4303080
Northern	LK-4	LK-43	PS-4301	PS-430125	Vavuniya	25	Parayanakulam	6.9303851	79.8771612	071-8592115	024-3200558	024-3242448	PS-430125	LK-1127035
Northern	LK-4	LK-43	PS-4301	PS-430126	Vavuniya	26	Ulukkulam	8.6509806	80.3147589	071-8592116	024-3202002	024-3248716	PS-430126	LK-4312085
Northern	LK-4	LK-43	PS-4301	PS-430127	Vavuniya	27	Ma-Maduwa	7.5761973	79.7880033	071-8592117	024-2053205	024-3244755	PS-430127	LK-6233205
Northern	LK-4	LK-43	PS-4301	PS-430128	Vavuniya	28	Puwarasamkulam	6.9095122	79.89515639999999	071-8592118	024-3123200	023-3230827	PS-430128	LK-1124020
Northern	LK-4	LK-43	PS-4301	PS-430129	Vavuniya	29	Echchanmkulam	7.1287213	79.8773709	071-8592123	024-2054242	024-3242891	PS-430129	LK-1206350
Northern	LK-4	LK-43	PS-4301	PS-430130	Vavuniya	30	Bogaswewa	8.8416534	80.62351699999999	071-8592121	-	024-3241716	PS-430130	LK-7106010
Northern	LK-4	LK-44	PS-4401	PS-440147	Mulathivu	47	Mankulam	9.1246061	80.44840390000002	071-8591357	021-2060000	021-2060003	PS-440147	LK-4412050
Northern	LK-4	LK-44	PS-4401	PS-440148	Mulathivu	48	Mullativu	9.2128251	80.76015939999999	071-8591376	021-2290119	021-2290120	PS-440148	LK-4415180
Northern	LK-4	LK-44	PS-4401	PS-440149	Mulathivu	49	Pudukuduiruppu	7.0015198	79.95003000000001	071-8591377	-	021-2061616	PS-440149	
Northern	LK-4	LK-44	PS-4401	PS-440150	Mulathivu	50	Muliyaweli	6.9152663	79.8782896	071-8591378	021-2061311	021-3202415	PS-440150	LK-1127045
Northern	LK-4	LK-44	PS-4401	PS-440151	Mulathivu	51	Oddusudan	9.1609828	80.6528214	071-8591380	021-2061767	021-3202417	PS-440151	LK-4412135
Northern	LK-4	LK-44	PS-4401	PS-440152	Mulathivu	52	Welioya	8.980582499999999	80.7735718	071-8591381	025-3857264	025-3259820	PS-440152	LK-4418035
Northern	LK-4	LK-44	PS-4401	PS-440153	Mulathivu	53	Mallavi	9.1378776	80.30725699999999	071-8591361	-	021-2060770	PS-440153	LK-4403020
Northern	LK-4	LK-45	PS-4501	PS-450131	Kilinochchi	31	Kilinochchi	9.3922647	80.4078464	071-8591349	021-2285457	021-2285467	PS-450131	LK-4509080
Northern	LK-4	LK-45	PS-4501	PS-450132	Kilinochchi	32	Palei	6.900777199999999	79.8726381	071-8591350	-	024-3248093	PS-450132	LK-1127060
Northern	LK-4	LK-45	PS-4501	PS-450133	Kilinochchi	33	Punarin	6.9141145	79.849048	071-8591352	-	021-2060810	PS-450133	LK-1127005
Northern	LK-4	LK-45	PS-4501	PS-450134	Kilinochchi	34	Nachchikudha	6.9072887	79.86381899999999	071-8591353	-	023-3238045	PS-450134	LK-1127015
Northern	LK-4	LK-45	PS-4501	PS-450135	Kilinochchi	35	Mulankavil	9.2544627	80.141528	071-8591354	023-3238043	023-3238052	PS-450135	LK-4512065
Northern	LK-4	LK-45	PS-4501	PS-450136	Kilinochchi	36	Dharmapuram	6.8731075	79.86167019999999	071-8592122	021-2283060	021-2283050	PS-450136	LK-1127090
Northern	LK-4	LK-45	PS-4501	PS-450137	Kilinochchi	37	Akkarayamkulam	6.9330754	79.857181	071-8592193	-	011-3081016	PS-450137	
Eastern	LK-5	LK-51	PS-5101	PS-510101	Batticaloa	1	Batticaloa	7.7179489	81.6992944	071-8591130	065-2224423	065-2224422	PS-510101	
Eastern	LK-5	LK-51	PS-5101	PS-510102	Batticaloa	2	Vavunathive	6.9330754	79.857181	071-8591131	-	065-3647515	PS-510102	
Eastern	LK-5	LK-51	PS-5101	PS-510103	Batticaloa	3	Kaththankudi	7.7159792	81.69875739999999	071-8591132	-	065-2246595	PS-510103	LK-5118135
Eastern	LK-5	LK-51	PS-5101	PS-510104	Batticaloa	4	Eravur	7.7159792	81.69875739999999	071-8591134	-	065-2240487	PS-510104	LK-5118135
Eastern	LK-5	LK-51	PS-5101	PS-510105	Batticaloa	5	Karadiyanaru	7.7019924	81.537252	071-8591135	065-3646229	065-3646228	PS-510105	LK-5112165
Eastern	LK-5	LK-51	PS-5101	PS-510106	Batticaloa	6	Aiththamalai	6.9072887	79.86381899999999	071-8591136	065-3647514	065-3647513	PS-510106	LK-1127015
Eastern	LK-5	LK-51	PS-5101	PS-510107	Batticaloa	7	Valachchanai	7.9080154	81.5330037	071-8591138	065-2257347	065-2257709	PS-510107	LK-5104040
Eastern	LK-5	LK-51	PS-5101	PS-510108	Batticaloa	8	Kalkudah	7.9192024	81.56562439999999	071-8591139	-	065-2257707	PS-510108	LK-5109025
Eastern	LK-5	LK-51	PS-5101	PS-510109	Batticaloa	9	Wakarai	6.934132399999999	79.8563053	071-8591140	065-3658910	065-3658244	PS-510109	LK-1103145
Eastern	LK-5	LK-51	PS-5101	PS-510110	Batticaloa	10	Kalawanchikudy	7.515908	81.7870512	071-8591142	-	065-2250022	PS-510110	LK-5136090
Eastern	LK-5	LK-51	PS-5101	PS-510111	Batticaloa	11	Vellavali	6.9072887	79.86381899999999	071-8591143	065-2056305	065-2056304	PS-510111	LK-1127015
Eastern	LK-5	LK-51	PS-5101	PS-510112	Batticaloa	12	Kokkadicholai	7.7159792	81.69875739999999	071-8591144	065-3647511	065-2056936	PS-510112	LK-5118135
Eastern	LK-5	LK-52	PS-5201	PS-520113	Ampara	13	Ampara	7.296771399999999	81.6771614	071-8591148	063-2222223	063-2222222	PS-520113	LK-5215055
Eastern	LK-5	LK-52	PS-5201	PS-520114	Ampara	14	Damana	7.200464999999999	81.65465329999999	071-8591149	063-2240195	063-2240022	PS-520114	LK-5242085
Eastern	LK-5	LK-52	PS-5201	PS-520115	Ampara	15	Inginiyagala	7.2204761	81.5453572	071-8591150	063-2242042	063-2242022	PS-520115	LK-8206020
Eastern	LK-5	LK-52	PS-5201	PS-520116	Ampara	16	Uhana	7.362434899999999	81.6360354	071-8591152	063-3634083	063-2250352	PS-520116	LK-5212195
Eastern	LK-5	LK-52	PS-5201	PS-520117	Ampara	17	Bakkiella	7.4892314	81.64366799999999	071-8591153	-	063-3632228	PS-520117	LK-5212030
Eastern	LK-5	LK-52	PS-5201	PS-520118	Ampara	18	Central Camp	7.414282399999999	81.7332567	071-8591154	-	063-2051722	PS-520118	LK-5216015
Eastern	LK-5	LK-52	PS-5201	PS-520119	Ampara	19	Mangalagama	7.5245326	81.53962609999999	071-8591155	-	063-5680120	PS-520119	LK-5130115
Eastern	LK-5	LK-52	PS-5201	PS-520120	Ampara	20	Mahaoya	7.531108499999999	81.356391	071-8591157	063-2244107	063-2244022	PS-520120	LK-5209040
Eastern	LK-5	LK-52	PS-5201	PS-520121	Ampara	21	Dehiaththakandiya	7.672072	81.044241	071-8591158	-	027-2250178	PS-520121	LK-5203015
Eastern	LK-5	LK-52	PS-5201	PS-520122	Ampara	22	Padiyathalawa	7.4011549	81.2435263	071-8591159	-	063-2246222	PS-520122	LK-5206040
Eastern	LK-5	LK-52	PS-5201	PS-520123	Ampara	23	Kalmunai	7.4142888	81.8250058	071-8591161	067-2229226	067-2229222	PS-520123	
Eastern	LK-5	LK-52	PS-5201	PS-520124	Ampara	24	Samanthurai	7.365785	81.8108591	071-8591162	067-2260221	067-2260222	PS-520124	LK-5218090
Eastern	LK-5	LK-52	PS-5201	PS-520125	Ampara	25	Chawalakade	7.4135588	81.7768223	071-8591163	-	067-2229596	PS-520125	LK-5216075
Eastern	LK-5	LK-52	PS-5201	PS-520126	Ampara	26	Akkaraipattu	7.2160844	81.8532541	071-8591165	067-2277239	067-2277222	PS-520126	LK-5236140
Eastern	LK-5	LK-52	PS-5201	PS-520127	Ampara	27	Thirukkovil	7.1139984	81.85221880000002	071-8591166	-	067-2265222	PS-520127	
Eastern	LK-5	LK-52	PS-5201	PS-520128	Ampara	28	Pothuvil	6.8783867	81.826859	071-8591168	-	063-2248022	PS-520128	LK-5248025
Eastern	LK-5	LK-52	PS-5201	PS-520129	Ampara	29	Panama	6.752004299999999	81.7934904	071-8591169	-	063-3639273	PS-520129	LK-5251040
Eastern	LK-5	LK-53	PS-5301	PS-530130	Trincomalee	30	Trincomalee	8.5639457	81.2340229	071-8591174	026-2222227	026-2222222	PS-530130	LK-5315210
Eastern	LK-5	LK-53	PS-5301	PS-530131	Trincomalee	31	Trinco Harbour Police	8.567050199999999	81.2314068	071-8591175	-	026-2222308	PS-530131	
Eastern	LK-5	LK-53	PS-5301	PS-530132	Trincomalee	32	Chinabay	8.5145308	81.1898302	071-8591176	026-2233223	026-2233222	PS-530132	LK-5315170
Eastern	LK-5	LK-53	PS-5301	PS-530133	Trincomalee	33	Kuchchaweli	8.81895	81.10043750000001	071-8591178	026-2252622	026-2252222	PS-530133	LK-5306050
Eastern	LK-5	LK-53	PS-5301	PS-530134	Trincomalee	34	Uppuweli	8.5936136	81.21742979999999	071-8591179	026-2222380	026-2222522	PS-530134	LK-5315100
Eastern	LK-5	LK-53	PS-5301	PS-530135	Trincomalee	35	Pulmudai	6.9152663	79.8782896	071-8591180	026-2256121	026-2256122	PS-530135	LK-1127045
Eastern	LK-5	LK-53	PS-5301	PS-530136	Trincomalee	36	Sripura	8.9296167	80.81428	071-8591181	025-2255062	025-2255054	PS-530136	LK-5303045
Eastern	LK-5	LK-53	PS-5301	PS-530137	Trincomalee	37	Nilawely	6.9330754	79.857181	071-8591182	026-3208062	026-3208061	PS-530137	
Eastern	LK-5	LK-53	PS-5301	PS-530138	Trincomalee	38	Mutur	8.4611326	81.25937080000001	071-8591184	-	026-2238222	PS-530138	LK-5327045
Eastern	LK-5	LK-53	PS-5301	PS-530139	Trincomalee	39	Sampoor	8.443395299999999	81.2673985	071-8591185	026-2051812	026-2051810	PS-530139	LK-5327085
Eastern	LK-5	LK-53	PS-5301	PS-530140	Trincomalee	40	Kinnia	6.9072887	79.86381899999999	071-8591186	-	026-2236222	PS-530140	LK-1127015
Eastern	LK-5	LK-53	PS-5302	PS-530241	Kantale	41	Kantale	8.3561287	81.00773889999999	071-8591190	026-2234223	026-2234222	PS-530241	LK-5321090
Eastern	LK-5	LK-53	PS-5302	PS-530242	Kantale	42	Agbopura	8.3313952	80.9764892	071-8591191	026-2244222	026-2244111	PS-530242	LK-5321100
Eastern	LK-5	LK-53	PS-5302	PS-530243	Kantale	43	Thambalagamuva	6.9072887	79.86381899999999	071-8591192	026-2248221	026-2248022	PS-530243	LK-1127015
Eastern	LK-5	LK-53	PS-5302	PS-530244	Kantale	44	Serunuwara	8.3218631	81.2993217	071-8591194	-	026-2251422	PS-530244	LK-5330055
Eastern	LK-5	LK-53	PS-5302	PS-530245	Kantale	45	Suriyapura	6.8731075	79.86167019999999	071-8591195	026-3208223	026-3208222	PS-530245	LK-1127090
Eastern	LK-5	LK-53	PS-5302	PS-530246	Kantale	46	Wan Ela	8.3561287	81.00773889999999	071-8591196	-	026-2234245	PS-530246	LK-5321090
Eastern	LK-5	LK-53	PS-5302	PS-530247	Kantale	47	Morawewa	8.6303168	81.031386	071-8591198	026-2225822	026-2227223	PS-530247	LK-5312025
Eastern	LK-5	LK-53	PS-5302	PS-530248	Kantale	48	Gomarankadawala	8.6744872	80.96755519999999	071-8591199	026-2255031	026-2255032	PS-530248	LK-5309005
North Western	LK-6	LK-61	PS-6101	PS-610101	Kurunagala	1	Kurunegala	7.485852400000001	80.3641373	071-8591247	037-2222226	037-2222222	PS-610101	LK-6154160
North Western	LK-6	LK-61	PS-6101	PS-610102	Kurunagala	2	Polgahawela	7.333281200000001	80.3003628	071-8591249	037-2243226	037-2243222	PS-610102	LK-6187370
North Western	LK-6	LK-61	PS-6101	PS-610103	Kurunagala	3	Alawwa	7.295909200000001	80.2427704	071-8591250	037-2278127	037-2278122	PS-610103	LK-6184195
North Western	LK-6	LK-61	PS-6101	PS-610104	Kurunagala	4	Pothuhera	7.416243299999999	80.327534	071-8591251	037-2237585	037-2237522	PS-610104	LK-6187025
North Western	LK-6	LK-61	PS-6101	PS-610105	Kurunagala	5	Wariyapola	7.6281286	80.24101859999999	071-8591253	037-2267226	037-2267222	PS-610105	LK-6136230
North Western	LK-6	LK-61	PS-6101	PS-610106	Kurunagala	6	Weerambugedara	7.476107400000001	80.2427968	071-8591254	037-2050222	037-2248019	PS-610106	LK-6166035
North Western	LK-6	LK-61	PS-6101	PS-610107	Kurunagala	7	Wellawa	7.5545227	80.3688956	071-8591255	037-2235101	037-2235062	PS-610107	LK-6154055
North Western	LK-6	LK-61	PS-6101	PS-610108	Kurunagala	8	Gokarella	7.595429599999999	80.480081	071-8591257	037-2250526	037-2250525	PS-610108	LK-6130230
North Western	LK-6	LK-61	PS-6101	PS-610109	Kurunagala	9	Mawathagama	7.432976200000001	80.4499041	071-8591258	037-2299269	037-2299222	PS-610109	LK-6160135
North Western	LK-6	LK-61	PS-6101	PS-610110	Kurunagala	10	Rideegama	7.5892475	80.6102695	071-8591259	037-2252023	037-2252022	PS-610110	LK-2215020
North Western	LK-6	LK-61	PS-6101	PS-610111	Kurunagala	11	Kumbukgatey	6.934132399999999	79.8563053	071-8592128	037-2264202	037-2264202	PS-610111	LK-1103145
North Western	LK-6	LK-61	PS-6102	PS-610212	Kuliyapitiya	12	Kuliyapitiya	7.4712048	80.0241391	071-8591263	037-2281223	037-2281222	PS-610212	LK-6172095
North Western	LK-6	LK-61	PS-6102	PS-610213	Kuliyapitiya	13	Narammala	7.4330921	80.21531759999999	071-8591265	037-2249060	037-2249222	PS-610213	LK-6181070
North Western	LK-6	LK-61	PS-6102	PS-610214	Kuliyapitiya	14	Pannala	7.327738	80.0217614	071-8591266	037-2246036	037-2246022	PS-610214	LK-6178385
North Western	LK-6	LK-61	PS-6102	PS-610215	Kuliyapitiya	15	Giriulla	7.334527	80.125021	071-8591267	037-2288026	037-2288022	PS-610215	LK-6178225
North Western	LK-6	LK-61	PS-6102	PS-610216	Kuliyapitiya	16	Hettipola	7.6067607	80.0816037	071-8591269	037-2291023	037-2291022	PS-610216	LK-6145165
North Western	LK-6	LK-61	PS-6102	PS-610217	Kuliyapitiya	17	Katupotha	7.531173	80.18743769999999	071-8591270	037-2247474	037-2247365	PS-610217	LK-6169015
North Western	LK-6	LK-61	PS-6102	PS-610218	Kuliyapitiya	18	Dummalasooriya	7.4938433	79.9124691	071-8591272	032-2240600	032-2240624	PS-610218	LK-6175085
North Western	LK-6	LK-61	PS-6102	PS-610219	Kuliyapitiya	19	Bingiriya	7.5967992	79.948965	071-8591273	-	032-2246165	PS-610219	LK-6142125
North Western	LK-6	LK-61	PS-6103	PS-610320	Nikaweratiya	20	Nikaweratiya	7.7426122	80.1211774	071-8591277	037-2260361	037-2260222	PS-610320	LK-6121190
North Western	LK-6	LK-61	PS-6103	PS-610321	Nikaweratiya	21	Kobeigane	7.6569338	80.1262828	071-8591278	-	037-2293024	PS-610321	LK-6139145
North Western	LK-6	LK-61	PS-6103	PS-610322	Nikaweratiya	22	Kotawehera	7.809000699999999	80.0779773	071-8591279	-	037-2260322	PS-610322	LK-6115105
North Western	LK-6	LK-61	PS-6103	PS-610323	Nikaweratiya	23	Rasnayakapura	7.776658299999998	80.0126915	071-8591280	-	037-2279974	PS-610323	LK-6118080
North Western	LK-6	LK-61	PS-6103	PS-610324	Nikaweratiya	24	Maho	7.8240007	80.2803799	071-8591282	037-2275223	037-2275222	PS-610324	LK-6124130
North Western	LK-6	LK-61	PS-6103	PS-610325	Nikaweratiya	25	Ambanpola	7.917017599999999	80.2438617	071-8591283	-	037-2253044	PS-610325	LK-6112060
North Western	LK-6	LK-61	PS-6103	PS-610326	Nikaweratiya	26	Polpithigama	7.835529299999999	80.4006371	071-8591284	-	037-2273130	PS-610326	LK-6127120
North Western	LK-6	LK-61	PS-6103	PS-610327	Nikaweratiya	27	Galgamuwa	8.0009324	80.27786669999999	071-8591286	-	037-2253022	PS-610327	LK-6106195
North Western	LK-6	LK-61	PS-6103	PS-610328	Nikaweratiya	28	Meegalewa	8.056704	80.3561631	071-8591287	-	025-2281222	PS-610328	LK-6106075
North Western	LK-6	LK-61	PS-6103	PS-610329	Nikaweratiya	29	Giribawa	8.117314	80.1890615	071-8591288	-	037-2553622	PS-610329	LK-6103115
North Western	LK-6	LK-62	PS-6201	PS-620130	Puttalam	30	Puttalam	8.0299041	79.8343957	071-8591292	032-2265422	032-2265222	PS-620130	LK-6215055
North Western	LK-6	LK-62	PS-6201	PS-620131	Puttalam	31	Anamaduwa	7.874851899999999	80.0131595	071-8591294	032-2263221	032-2263296	PS-620131	LK-6224145
North Western	LK-6	LK-62	PS-6201	PS-620132	Puttalam	32	Pallama	7.691904399999999	79.9225546	071-8591295	-	032-2224929	PS-620132	LK-6227065
North Western	LK-6	LK-62	PS-6201	PS-620133	Puttalam	33	Nawagaththegama	8.0028823	80.1065433	071-8591296	-	032-3323235	PS-620133	LK-6212020
North Western	LK-6	LK-62	PS-6201	PS-620134	Puttalam	34	Wanathawilluwa	8.188136799999999	79.8584474	071-8591298	-	032-3327461	PS-620134	LK-6206050
North Western	LK-6	LK-62	PS-6201	PS-620135	Puttalam	35	Karuwalagaswewa	8.0550657	79.95581729999999	071-8591299	-	032-2267927	PS-620135	LK-6209115
North Western	LK-6	LK-62	PS-6201	PS-620136	Puttalam	36	Saliyawewa	8.1926139	80.09136029999999	071-8591300	-	025-3851754	PS-620136	LK-6209020
North Western	LK-6	LK-62	PS-6201	PS-620137	Puttalam	37	Kalpitiya	8.2351449	79.7645665	071-8591302	032-2260112	032-2260423	PS-620137	LK-6203030
North Western	LK-6	LK-62	PS-6201	PS-620138	Puttalam	38	Mundal	7.8088595	79.82572940000001	0718591303	-	032-3327222	PS-620138	LK-6218100
North Western	LK-6	LK-62	PS-6201	PS-620139	Puttalam	39	Norochcholey	6.900777199999999	79.8726381	071-8592126	032-2268950	032-3297907	PS-620139	LK-1127060
North Western	LK-6	LK-62	PS-6201	PS-620140	Puttalam	40	Udappuwa	7.7596949	79.78851809999999	071-8592175	-	032-5687262	PS-620140	LK-6218125
North Western	LK-6	LK-62	PS-6202	PS-620241	Chilaw	41	Chilaw	7.5761973	79.7880033	071-8591307	032-2222221	032-2222222	PS-620241	LK-6233205
North Western	LK-6	LK-62	PS-6202	PS-620242	Chilaw	42	Madampe	7.494960499999999	79.84026759999999	071-8591308	032-2247222	032-2247622	PS-620242	LK-6236190
North Western	LK-6	LK-62	PS-6202	PS-620243	Chilaw	43	Marawila	7.4150751	79.8397762	071-8591310	032-2252262	032-2254222	PS-620243	LK-6239215
North Western	LK-6	LK-62	PS-6202	PS-620244	Chilaw	44	Koswatta	7.374527599999999	79.898302	071-8591311	-	031-2255223	PS-620244	LK-6242145
North Western	LK-6	LK-62	PS-6202	PS-620245	Chilaw	45	Wennappuwa	7.339622800000001	79.84301669999999	071-8591313	031-2255667	031-2255222	PS-620245	LK-6245075
North Western	LK-6	LK-62	PS-6202	PS-620246	Chilaw	46	Dankotuwa	7.300336700000001	79.88259459999999	071-8591314	031-2259400	031-2258222	PS-620246	LK-6248125
North Western	LK-6	LK-62	PS-6202	PS-620247	Chilaw	47	Arachchikattuwa	7.659439799999999	79.8377725	071-8592176	-	032-2259722	PS-620247	LK-6230130
North Central	LK-7	LK-71	PS-7101	PS-710101	Anuradhapura	1	Anuradapura	8.329752	80.4072654	071-8591203	025-2222229	025-2222222	PS-710101	LK-7133055
North Central	LK-7	LK-71	PS-7101	PS-710102	Anuradhapura	2	Hidogama	8.3157503	80.4203577	071-8591204	-	025-3254167	PS-710102	LK-7133060
North Central	LK-7	LK-71	PS-7101	PS-710103	Anuradhapura	3	Udamaluwa	8.3434445	80.399749	071-8591205	-	025-2221578	PS-710103	LK-7115165
North Central	LK-7	LK-71	PS-7101	PS-710104	Anuradhapura	4	Mihintale	8.3600624	80.5118895	071-8591206	-	025-2266522	PS-710104	LK-7130060
North Central	LK-7	LK-71	PS-7101	PS-710105	Anuradhapura	5	Kekirawa	8.0396925	80.5986497	071-8591208	025-2264226	025-2264222	PS-710105	
North Central	LK-7	LK-71	PS-7101	PS-710106	Anuradhapura	6	Thirappone	6.9072887	79.86381899999999	071-8591209	-	025-2050222	PS-710106	LK-1127015
North Central	LK-7	LK-71	PS-7101	PS-710107	Anuradhapura	7	Eppawala	8.149659999999999	80.4097267	071-8591211	-	025-2249122	PS-710107	LK-7148100
North Central	LK-7	LK-71	PS-7101	PS-710108	Anuradhapura	8	Galnewa	8.0377549	80.47713879999999	071-8591212	025-2269523	025-2269522	PS-710108	LK-7163080
North Central	LK-7	LK-71	PS-7101	PS-710109	Anuradhapura	9	Galkiriyagama	7.9332228	80.5636024	071-8591213	-	025-2052722	PS-710109	LK-7166070
North Central	LK-7	LK-71	PS-7101	PS-710110	Anuradhapura	10	Kebithigollawa	8.8371879	80.7571828	071-8591215	025-2298623	025-2298622	PS-710110	LK-7103035
North Central	LK-7	LK-71	PS-7101	PS-710111	Anuradhapura	11	Medawachchiya	8.5400063	80.4903228	071-8591216	025-2245888	025-2245622	PS-710111	LK-7109155
North Central	LK-7	LK-71	PS-7101	PS-710112	Anuradhapura	12	Padaviya	8.8371879	80.7571828	071-8591217	025-2253146	025-2253222	PS-710112	LK-7103035
North Central	LK-7	LK-71	PS-7101	PS-710113	Anuradhapura	13	Thambuttegama	8.1507725	80.29387410000001	071-8591219	025-2276223	025-2276222	PS-710113	LK-7145095
North Central	LK-7	LK-71	PS-7101	PS-710114	Anuradhapura	14	Rajanganaya	8.1979372	80.1517057	071-8591220	025-3771842	025-3891500	PS-710114	LK-7142030
North Central	LK-7	LK-71	PS-7101	PS-710115	Anuradhapura	15	Nochchiyagama	8.2649177	80.2121751	071-8591221	-	025-2257822	PS-710115	LK-7139090
North Central	LK-7	LK-71	PS-7101	PS-710116	Anuradhapura	16	Thalawa	8.2286935	80.34582929999999	071-8591222	-	025-2276233	PS-710116	LK-7148040
North Central	LK-7	LK-71	PS-7101	PS-710117	Anuradhapura	17	Horowpathana	8.5538785	80.83073449999999	071-8591224	025-2277426	025-2278422	PS-710117	LK-7124100
North Central	LK-7	LK-71	PS-7101	PS-710118	Anuradhapura	18	Kahatagasdigiliya	8.4273281	80.6883493	071-8591225	-	025 - 2247422	PS-710118	LK-7121090
North Central	LK-7	LK-71	PS-7101	PS-710119	Anuradhapura	19	Thanthirimalaya	6.9095122	79.89515639999999	071-8591227	-	025-2245722	PS-710119	LK-1124020
North Central	LK-7	LK-71	PS-7101	PS-710120	Anuradhapura	20	Mahawilachchiya	8.4849868	80.19391089999999	071-8591228	-	025-2223322	PS-710120	LK-7112060
North Central	LK-7	LK-71	PS-7101	PS-710121	Anuradhapura	21	Galenbidunuwewa	8.290369799999999	80.71501049999999	071-8591229	-	025-2258222	PS-710121	LK-7127075
North Central	LK-7	LK-71	PS-7101	PS-710122	Anuradhapura	22	Ipalogama	8.0396925	80.5986497	071-8592124	-	025-2262322	PS-710122	
North Central	LK-7	LK-71	PS-7101	PS-710123	Anuradhapura	23	Parasangaswewa	8.6509806	80.3147589	071-8592157	-	025-3249322	PS-710123	LK-4312085
North Central	LK-7	LK-71	PS-7101	PS-710124	Anuradhapura	24	Moragoda	8.5400063	80.4903228	071-8592158	-	025-3248447	PS-710124	LK-7109155
North Central	LK-7	LK-72	PS-7201	PS-720125	Polonnaruwa	25	Polonnaruwa	7.924307499999999	81.03689469999999	071-8591233	027-2222226	027-2222222	PS-720125	LK-7215190
North Central	LK-7	LK-72	PS-7201	PS-720126	Polonnaruwa	26	Pulasthipura	8.028343099999999	81.0323758	071-8591234	-	027-2242470	PS-720126	LK-7209110
North Central	LK-7	LK-72	PS-7201	PS-720127	Polonnaruwa	27	Welikanda	7.946440600000001	81.2453811	071-8591235	027-2259098	027-2259143	PS-720127	LK-7210090
North Central	LK-7	LK-72	PS-7201	PS-720128	Polonnaruwa	28	Aralaganwila	7.785325100000001	81.18563189999999	071-8591236	027-2257222	027-2222221	PS-720128	LK-7212115
North Central	LK-7	LK-72	PS-7201	PS-720129	Polonnaruwa	29	Hingurakgoda	8.0488191	80.9657514	071-8591238	027-2246224	027-2246222	PS-720129	LK-7203115
North Central	LK-7	LK-72	PS-7201	PS-720130	Polonnaruwa	30	Medirigiriya	8.1508469	80.9844935	071-8591239	027-2448695	027-2248222	PS-720130	LK-7206150
North Central	LK-7	LK-72	PS-7201	PS-720131	Polonnaruwa	31	Habarana	8.039452299999999	80.7566816	071-8591241	066-2270722	066-2270022	PS-720131	LK-7157055
North Central	LK-7	LK-72	PS-7201	PS-720132	Polonnaruwa	32	Bakamuna	7.778789100000001	80.816102	071-8591242	066-2256889	066-2256622	PS-720132	LK-7218095
North Central	LK-7	LK-72	PS-7201	PS-720133	Polonnaruwa	33	Minneriya	8.0363413	80.9044887	071-8591243	027-2245422	027-2247222	PS-720133	LK-7203095
Uva	LK-8	LK-81	PS-8101	PS-810101	Badulla	1	Badulla	6.9913374	81.055246	071-8591511	055-2222226	055-2222222	PS-810101	LK-8121070
Uva	LK-8	LK-81	PS-8101	PS-810102	Badulla	2	Passara	6.9344812	81.15479619999999	071-8591513	055-2288114	055-2288222	PS-810102	LK-8118115
Uva	LK-8	LK-81	PS-8101	PS-810103	Badulla	3	Madolseema	7.0329161	81.16553979999999	071-8591514	-	055-2263822	PS-810103	LK-8119075
Uva	LK-8	LK-81	PS-8101	PS-810104	Badulla	4	Lunugala	7.0476915	81.2033898	071-8591515	-	055-2263922	PS-810104	LK-8119045
Uva	LK-8	LK-81	PS-8101	PS-810105	Badulla	5	Mahiyangane	7.334974600000001	80.9931083	071-8591517	-	055-2257222	PS-810105	LK-8103140
Uva	LK-8	LK-81	PS-8101	PS-810106	Badulla	6	Giradurukotte	7.4691384	81.0169384	071-8591518	-	027-2254222	PS-810106	LK-8103070
Uva	LK-8	LK-81	PS-8101	PS-810107	Badulla	7	Kandaketiya	7.1955512	81.0195804	071-8591519	-	055-2245622	PS-810107	LK-8112015
Uva	LK-8	LK-81	PS-8101	PS-810108	Badulla	8	Haliela	6.958216299999999	81.0344468	071-8592142	055-2295988	055-2295990	PS-810108	LK-8124095
Uva	LK-8	LK-81	PS-8101	PS-810109	Badulla	9	Redeemaliyadda / (Kanugolla)	7.214662199999999	81.1244923	071-8592141	-	055-2268117	PS-810109	LK-8106120
Uva	LK-8	LK-81	PS-8102	PS-810210	Bandarawela	10	Bandarawela	6.831526299999999	80.9867836	071-8591523	057-2222226	057-2222222	PS-810210	LK-8133065
Uva	LK-8	LK-81	PS-8102	PS-810211	Bandarawela	11	Ella	6.8766091	81.04827630000001	071-8591524	057-2228850	057-2228522	PS-810211	LK-8136080
Uva	LK-8	LK-81	PS-8102	PS-810212	Bandarawela	12	Welimada	6.900481399999999	80.9058094	071-8591526	057-2244700	057-2245222	PS-810212	LK-8130075
Uva	LK-8	LK-81	PS-8102	PS-810213	Bandarawela	13	Uvaparanagama	6.958341099999999	80.93036440000002	071-8591527	057-2232727	057-2232765	PS-810213	LK-8127215
Uva	LK-8	LK-81	PS-8102	PS-810214	Bandarawela	14	Etempitiya	6.9582543	80.9302915	071-8591528	055-2295466	055-2294965	PS-810214	LK-8127215
Uva	LK-8	LK-81	PS-8102	PS-810215	Bandarawela	15	Haputale	6.767652699999999	80.95721809999999	071-8591530	057-2268700	057-2268022	PS-810215	LK-8139110
Uva	LK-8	LK-81	PS-8102	PS-810216	Bandarawela	16	Diyathalawa	6.806036600000001	80.9602524	071-8591531	057-2229977	057-2229022	PS-810216	LK-8139040
Uva	LK-8	LK-81	PS-8102	PS-810217	Bandarawela	17	Koslanda	6.7365885	81.016126	071-8591532	-	057-2257848	PS-810217	LK-8142055
Uva	LK-8	LK-81	PS-8102	PS-810219	Bandarawela	19	Bogahakumbura	6.8536002	80.8667876	071-8592160	057-2280119	057-2281221	PS-810219	LK-8130240
Uva	LK-8	LK-82	PS-8201	PS-820121	Monaragala	21	Monaragala	6.869866099999999	81.3481058	071-8591536	055-2276223	055-2276222	PS-820121	LK-8215085
Uva	LK-8	LK-82	PS-8201	PS-820122	Monaragala	22	Siyambalanduwa	6.9068508	81.5475976	071-8591537	-	055-2279222	PS-820122	LK-8212120
Uva	LK-8	LK-82	PS-8201	PS-820123	Monaragala	23	Dambagalla	6.978805599999999	81.37203690000001	071-8591538	-	055-2275222	PS-820123	LK-8206095
Uva	LK-8	LK-82	PS-8201	PS-820124	Monaragala	24	Athimale	6.9072887	79.86381899999999	071-8591539	-	055-2275622	PS-820124	LK-1127015
Uva	LK-8	LK-82	PS-8201	PS-820125	Monaragala	25	Bibila	7.165232400000001	81.2254634	071-8591541	-	055-2265422	PS-820125	LK-8203135
Uva	LK-8	LK-82	PS-8201	PS-820126	Monaragala	26	Medagama	7.0336078	81.2767075	071-8591542	-	055-2266522	PS-820126	LK-8209115
Uva	LK-8	LK-82	PS-8201	PS-820127	Monaragala	27	Buttala	6.7624985	81.25044539999999	071-8591543	055-2276223	055-2273922	PS-820127	LK-8224030
Uva	LK-8	LK-82	PS-8201	PS-820128	Monaragala	28	Badalkumbura	6.889016799999999	81.235441	071-8591544	-	055-2250222	PS-820128	LK-8218080
Uva	LK-8	LK-82	PS-8201	PS-820129	Monaragala	29	Gonaganara	6.6255617	81.2691763	071-8591545	-	055-3594169	PS-820129	LK-8224140
Uva	LK-8	LK-82	PS-8201	PS-820130	Monaragala	30	wellawaya	6.7308045	81.100708	071-8591547	055-2274578	055-2274822	PS-820130	LK-8221040
Uva	LK-8	LK-82	PS-8201	PS-820131	Monaragala	31	Thanamalwila	6.4376956	81.1310506	071-8591549	047-2285022	047-2234022	PS-820131	LK-8230065
Uva	LK-8	LK-82	PS-8201	PS-820132	Monaragala	32	Hambegamuwa	6.5457911	80.9478664	071-8591550	-	047-3620033	PS-820132	LK-8230020
Uva	LK-8	LK-82	PS-8201	PS-820133	Monaragala	33	Mahakalugolla	6.752004299999999	81.7934904	071-8592132	-	055-5613106	PS-820133	LK-5251040
Uva	LK-8	LK-82	PS-8201	PS-820134	Monaragala	34	Kudaoya	6.5237773	81.123696	071-8592133	-	055-3590731	PS-820134	LK-8221135
Uva	LK-8	LK-82	PS-8201	PS-820135	Monaragala	35	Okkampitiya	6.7510721	81.3066468	071-8592134	-	055-3597895	PS-820135	LK-8224045
Uva	LK-8	LK-82	PS-8201	PS-820136	Monaragala	36	Karandugala	6.934132399999999	79.8563053	071-8592135	-	055-3050922	PS-820136	LK-1103145
Uva	LK-8	LK-82	PS-8201	PS-820137	Monaragala	37	14 Miles (Govindapura)	6.9152663	79.8782896	071-8592136	-	055-3590727	PS-820137	LK-1127045
Sabaragamuwa	LK-9	LK-91	PS-9101	PS-910101	Ratnapura	1	Ratnapura	6.6794555	80.4022301	071-8591385	045-2222897	045-2222222	PS-910101	LK-9112205
Sabaragamuwa	LK-9	LK-91	PS-9101	PS-910102	Ratnapura	2	Wewalwatta	6.7072018	80.5555693	071-8591386	-	045-2226122	PS-910102	LK-9112045
Sabaragamuwa	LK-9	LK-91	PS-9101	PS-910103	Ratnapura	3	Balangoda	6.6494742	80.70027639999999	071-8591388	045-2287422	045-2287222	PS-910103	LK-9118025
Sabaragamuwa	LK-9	LK-91	PS-9101	PS-910104	Ratnapura	4	Opanayaka	6.608518999999999	80.6192851	071-8591389	-	045-2270122	PS-910104	LK-9121045
Sabaragamuwa	LK-9	LK-91	PS-9101	PS-910105	Ratnapura	5	Kaltota	6.6494742	80.70027639999999	071-8591390	-	047-3489291	PS-910105	LK-9118025
Sabaragamuwa	LK-9	LK-91	PS-9101	PS-910106	Ratnapura	6	Weligepola	6.5964259	80.72369479999999	071-8591391	045-2227122	045-2227222	PS-910106	LK-9145025
Sabaragamuwa	LK-9	LK-91	PS-9101	PS-910107	Ratnapura	7	Kahawatta	6.591433899999999	80.56892959999999	071-8591393	045-2270488	045-2270822	PS-910107	LK-9124165
Sabaragamuwa	LK-9	LK-91	PS-9101	PS-910108	Ratnapura	8	Rakwana	6.4701332	80.6136843	071-8591394	045-2246231	045-2246222	PS-910108	LK-9142175
Sabaragamuwa	LK-9	LK-91	PS-9101	PS-910109	Ratnapura	9	Ayagama	6.6377266	80.3125537	071-8591397	-	045-2250122	PS-910109	LK-9130075
Sabaragamuwa	LK-9	LK-91	PS-9101	PS-910110	Ratnapura	10	Kalawana	6.5307378	80.3907193	071-8591398	045-2255922	045-2255222	PS-910110	LK-9133035
Sabaragamuwa	LK-9	LK-91	PS-9101	PS-910111	Ratnapura	11	Nivithigala	6.5927653	80.4594925	071-8591399	045-2279223	045-2279222	PS-910111	LK-9136085
Sabaragamuwa	LK-9	LK-91	PS-9101	PS-910112	Ratnapura	12	Kuruwita	6.7788391	80.364712	071-8591401	045-2262223	045-2262222	PS-910112	LK-9106145
Sabaragamuwa	LK-9	LK-91	PS-9101	PS-910113	Ratnapura	13	Ehaliyagoda	6.854602799999999	80.2604459	071-8591402	036-2258390	036-2258222	PS-910113	LK-9103125
Sabaragamuwa	LK-9	LK-91	PS-9101	PS-910114	Ratnapura	14	Kiriella	6.735338199999999	80.276481	071-8591403	-	045-2265822	PS-910114	LK-9109065
Sabaragamuwa	LK-9	LK-91	PS-9101	PS-910115	Ratnapura	15	Pinnawala	7.299942600000001	80.38660380000002	071-8592108	-	0113024301	PS-910115	LK-9203390
Sabaragamuwa	LK-9	LK-91	PS-9101	PS-910116	Ratnapura	16	Siripagama	6.7835867	80.4322004	071-8592144	045-3451122	045-3471122	PS-910116	LK-9112015
Sabaragamuwa	LK-9	LK-91	PS-9101	PS-910117	Ratnapura	17	Pelmadulla	6.6326917	80.5213148	071-8592145	-	045-2276322	PS-910117	LK-9124115
Sabaragamuwa	LK-9	LK-91	PS-9102	PS-910233	Embilipitiya	33	Godakawela	6.502239599999999	80.65564239999999	071-8591395	045-2240323	045-2240222	PS-910233	LK-9142115
Sabaragamuwa	LK-9	LK-91	PS-9102	PS-910234	Embilipitiya	34	Udawalawa	6.422660500000001	80.8142934	071-8591409	-	047-3472222	PS-910234	LK-9148020
Sabaragamuwa	LK-9	LK-91	PS-9102	PS-910235	Embilipitiya	35	Kolonna	6.401940499999999	80.687615	071-8591407	-	045-2260222	PS-910235	LK-9151070
Sabaragamuwa	LK-9	LK-91	PS-9102	PS-910236	Embilipitiya	36	Panamure	6.401940499999999	80.687615	071-8591408	-	047-3489294	PS-910236	LK-9151070
Sabaragamuwa	LK-9	LK-91	PS-9102	PS-910237	Embilipitiya	37	Embilipitiya	6.3219927	80.844883	071-8591405	047-2230223	047-2230222	PS-910237	LK-9148125
Sabaragamuwa	LK-9	LK-91	PS-9102	PS-910238	Embilipitiya	38	Kuttigala	6.260474599999999	80.90738859999999	071-8591406	-	047-3489290	PS-910238	LK-9148190
Sabaragamuwa	LK-9	LK-91	PS-9102	PS-910239	Embilipitiya	39	Sewanagala	6.3606627	80.9185553	071-8591548	047-2231321	047-2231322	PS-910239	LK-8233035
Sabaragamuwa	LK-9	LK-92	PS-9201	PS-920118	Kagalle	18	Kegalle	7.255927999999999	80.3531564	071-8591413	035-2222226	035-2222222	PS-920118	LK-9212040
Sabaragamuwa	LK-9	LK-92	PS-9201	PS-920119	Kagalle	19	Wrakapola	7.2274882	80.1996961	071-8591414	035-2267967	035-2267222	PS-920119	LK-9218105
Sabaragamuwa	LK-9	LK-92	PS-9201	PS-920120	Kagalle	20	Aranayaka	7.1865055	80.4552734	071-8591415	-	035-2258022	PS-920120	LK-9209130
Sabaragamuwa	LK-9	LK-92	PS-9201	PS-920121	Kagalle	21	Dedigama	7.204340999999999	80.261769	071-8591417	-	035-2282126	PS-920121	LK-9218255
Sabaragamuwa	LK-9	LK-92	PS-9201	PS-920122	Kagalle	22	Mawanella	7.2569656	80.44591249999999	071-8591418	035-2247222	035-2246222	PS-920122	LK-9206080
Sabaragamuwa	LK-9	LK-92	PS-9201	PS-920123	Kagalle	23	Rambukkana	7.324319	80.38780779999999	071-8591419	035-2265333	035-3265222	PS-920123	LK-9203205
Sabaragamuwa	LK-9	LK-92	PS-9201	PS-920124	Kagalle	24	Pindeniya	7.1564856	80.2950919	071-8591421	-	035-2289022	PS-920124	LK-9215205
Sabaragamuwa	LK-9	LK-92	PS-9201	PS-920125	Kagalle	25	Hemmathagama	7.175401799999999	80.5002916	071-8591422	035-2257116	035-2257622	PS-920125	LK-9206300
Sabaragamuwa	LK-9	LK-92	PS-9202	PS-920226	Seethawakapura	26	Awissawella	6.947538499999999	80.2154216	071-8591425	036-2222380	036-2222222	PS-920226	
Sabaragamuwa	LK-9	LK-92	PS-9202	PS-920227	Seethawakapura	27	Kosgama	6.9465971	80.1378687	071-8591426	036-2255026	036-2255022	PS-920227	LK-1115070
Sabaragamuwa	LK-9	LK-92	PS-9202	PS-920228	Seethawakapura	28	Deraniyagala	6.935815499999999	80.33499809999999	071-8591427	-	036-2249222	PS-920228	LK-9233045
Sabaragamuwa	LK-9	LK-92	PS-9202	PS-920229	Seethawakapura	29	Ruwanwella	7.046188799999999	80.2541736	071-8591429	036-2267522	036-2266222	PS-920229	LK-9221165
Sabaragamuwa	LK-9	LK-92	PS-9202	PS-920230	Seethawakapura	30	Yatiyantota	7.0272068	80.2907529	071-8591430	-	036-2270224	PS-920230	LK-9227020
Sabaragamuwa	LK-9	LK-92	PS-9202	PS-920231	Seethawakapura	31	Kithulgala	6.9951078	80.4124868	071-8591431	-	036-2287522	PS-920231	LK-9227155
Sabaragamuwa	LK-9	LK-92	PS-9202	PS-920232	Seethawakapura	32	Bulathkohupitiya	7.1066843	80.3347002	071-8591432	-	036-2247222	PS-920232	
